#dP2020 12 26  0  0  0.00000000      96 __u+U ITR00 FIT  IAC
## 2137 518400.00000000   900.00000000 59209 0.0000000000000
+  111   C01C02C03C04C05C06C07C09C10C11C12C13C14C16C19C20C21
+        C22C23C24C25C26C27C28C29C30C32C33C34C35C36C37E01E02
+        E03E04E05E07E08E09E11E12E13E14E15E18E19E21E24E25E26
+        E27E30E31E33E36G01G02G03G04G05G06G07G08G09G10G11G12
+        G13G14G15G16G17G18G19G20G21G22G23G24G25G26G27G28G29
+        G30G31G32J01J02J03R01R02R03R04R05R07R08R09R12R13R14
+        R15R16R17R18R19R20R21R22R24  0  0  0  0  0  0  0  0
++        13 14 13 14 13  8  9  8  8  8  8  8  8  8  8  8  8
++         8  8  8  8  8  8  8  8  8  8  8  8  8  8  8  4  4
++         4  6  4  4  4  5  5  5  4  4  5  4  5  4  4  4  4
++         4  4  4  5  5  4  4  4  4  4  4  4  3  4  4  4  4
++         4  4  4  4  4  4  4  4  4  4  4  4  4  4  4  4  4
++         4  4  4  9  8  8  7  6  6  6  6  6  6  6  6  6  6
++         6  6  6  6  6  7  6  7  6  0  0  0  0  0  0  0  0
%c M  cc GPS ccc cccc cccc cccc cccc ccccc ccccc ccccc ccccc
%c cc cc ccc ccc cccc cccc cccc cccc ccccc ccccc ccccc ccccc
%f  0.0000000  0.000000000  0.00000000000  0.000000000000000
%f  0.0000000  0.000000000  0.00000000000  0.000000000000000
%i    0    0    0    0      0      0      0      0         0
%i    0    0    0    0      0      0      0      0         0
/* INFORMATION & ANALYSIS CENTER (IAC)            RAPID DATA
/* S/V CLOCKS ARE ALIGNED TO GNSS TIME                      
/* G:C1WC2W R:C1PC2P E:C1XC5X C:C2IC6I J:C1CC2S             
/* PCV:IGS14_2134 OL/AL:FES2004  NONE     YN ORB:CoN CLK:CoN
*  2020 12 26 17 45  0.00000000
PC01 -34313.395940  24493.862482   -123.158962   -734.829802
PC02   4311.475617  41954.631519     40.745708    641.711474
PC03 -14799.906129  39445.310596    973.497695    273.495066
PC04 -39586.215891  14489.141861    577.011516   -275.235360
PC05  21847.291537  36071.774144   -238.428955   -392.206118
PC06 -20578.305196  21623.526870 -29546.856325     85.187838
PC07 -17759.617676  37931.959205   -840.887001   -167.384783
PC09  -1973.839702  24379.445623 -34107.356837    845.995273
PC10  -7368.969782  39693.774797  11547.728792   -115.426097
PC11  12955.421812  15187.421805  19589.465046   -843.836671
PC12  -7690.597863  14046.980602  22893.366160    690.217954
PC13   7126.530932  35817.239455  21431.171943     70.456097
PC14   2806.352257  19145.349615 -20069.662986   -233.565160
PC16 -18342.804398  22071.711041 -30884.158220   -641.404489
PC19 -10936.792815 -11729.929531  22856.136226    668.151925
PC20   4671.504980 -23020.638712  15092.271446   -910.180103
PC21 -18236.589056  21011.922861   2065.162950   -768.406221
PC22 -20641.579177   6644.067665  17548.888480   -825.885115
PC23  17698.021486   3579.053638  21281.778018   -888.569828
PC24   3868.858484  26354.155509  -8385.731676   -733.391154
PC25  16153.046321  20592.639942   9712.636384   -875.438846
PC26  -8714.261658  16874.322106 -20466.697264    955.946066
PC27  17732.335996 -10359.802764 -18898.695962    455.931023
PC28  27568.371404   1623.363882  -4035.596903   -129.300743
PC29 -21651.483686 -11777.447265 -13088.720776    330.027921
PC30  -2523.106474 -16108.863934 -22646.745393    422.730217
PC32  18085.314614 -21153.850007  -2065.704518   -881.161950
PC33  10960.541630  11748.027692 -22815.948071   -886.762239
PC34   3176.689739  16174.976082  22512.295957   -777.455711
PC35 -27654.719241   -835.293789   3779.021812   -495.112094
PC36 -15533.876819 -21165.488519  -9426.341761   -793.337779
PC37   9650.751598 -15902.341071  20810.518246   -862.066865
PE01  16509.361086    168.034651  24570.971801  -1011.622308
PE02 -16517.248519     -2.062075 -24562.457832    186.476632
PE03 -27156.417366   4283.456794  10948.055145   -380.364102
PE04  23311.318226 -16738.254703   7246.563769   -675.991267
PE05 -15131.360044 -10872.660856  22994.211113   -318.060899
PE07  -5609.264830  19542.387589 -21512.078705   -479.622150
PE08 -23049.910347  16957.185985  -7558.026010   6071.324279
PE09   5426.972511 -19435.715361  21656.063915   5819.797060
PE11  -5378.333270 -20237.510776 -20923.808353   6573.064909
PE12  14718.601371  -9051.052608 -24023.053163   5437.868274
PE13   5088.554069  20056.455644  21178.002411    409.104776
PE14 -22157.747843   8981.922559   6511.270622  -1273.084790
PE15 -14592.576782   9102.860448  24104.351742    837.273700
PE18  19069.983665 -17958.780939 -18293.773509  -1391.212467
PE19  26507.580534  -2556.500766 -12920.557436    162.765062
PE21  10750.077365  20502.376696  18452.598629   -639.411351
PE24   1956.403285 -29507.196216   -875.696432   -656.295547
PE25 -10661.497416 -20634.041751 -18336.924677   -523.043850
PE26  22008.236672  19122.018593   5152.227364   2337.487636
PE27  -1438.378323  29539.089205   1432.835213     64.177263
PE30 -13146.157652  20520.299362 -16821.250673   3313.281470
PE31  12720.615101 -21148.345254  16347.264944   -476.825688
PE33  25674.015497   7212.173584 -12831.441027   -464.372105
PE36 -21765.738883 -19203.098570  -5789.476938    462.623598
PG01 -20920.705569 -12627.064596  10573.452787    790.136424
PG02  12012.722360  21484.554717  10627.737858   -558.935518
PG03 -14791.107898  -2924.366257  21780.509911    -40.054119
PG04 -24627.638392  -2275.377103   9748.489931   -167.661538
PG05   5139.524753  21326.382213 -14998.193199    -29.366027
PG06   -907.083394  18154.488539  19412.739850     -4.466765
PG07 -17233.129239   2059.228394 -19905.531609     -2.543817
PG08 -19644.126748  -6999.319391 -16605.280431     -4.308165
PG09 -25466.074259   7403.929481  -1703.452235   -305.882017
PG10  11684.485187 -22781.229653  -6423.431882    -25.009774
PG11 -23381.086316 -11676.241661  -3924.650767    -70.451656
PG12  12893.639386   7451.907851  21759.813919     21.553591
PG13  10234.258815  13386.071743 -20696.028571     79.160425
PG14 -13837.932280  21119.708968  -8246.011410     73.438999
PG15  21034.505123   5336.286654 -15906.447038   -180.611457
PG16  -2251.169582 -21550.423644 -15263.154434   -255.996919
PG17 -15071.656927  14056.933893  17177.300660    372.200256
PG18  15436.612425  -4552.236299 -21144.531718    336.165883
PG19  -8050.487898  14640.064425  20343.519673    -60.161841
PG20  14850.457350 -14113.139806 -16823.491685    525.446314
PG21 -21003.657963 -16365.426460   3541.505460     81.202259
PG22 -12749.181869 -12001.253319  20207.926760   -708.908740
PG23  15470.029095 -15103.529402 -15431.511395    112.789203
PG24  21624.690613  14506.131403   5961.333191      4.599285
PG25  16334.573908  -7604.775446  19172.745123     47.356481
PG26   3877.308846 -25818.149576  -4101.178019     20.442325
PG27  -7505.099977 -13429.152976 -21838.802759    -43.088549
PG28 -12560.381184  23071.277273  -3958.348183    638.057127
PG29  26217.567435  -4363.046782   -622.193187   -263.676822
PG30  -9562.739022  12725.726447 -21198.028735   -358.801503
PG31   -565.393151 -19569.726791  17656.070116    -90.035460
PG32  13856.747007 -15305.437538  16704.167387     10.607775
PJ01 -35287.540455  23070.320048   5140.374142   -335.298344
PJ02 -20447.613182  28426.142037 -18931.494804      0.287520
PJ03 -28428.483342  24684.010802  24237.438708     -4.894345
PR01 -19416.170800  16416.664452   1972.256441     72.599547
PR02  -7100.985187  17112.744269 -17530.217226    460.265320
PR03   8566.389556   7017.634934 -22941.021574     28.022450
PR04  19065.299429  -7080.131363 -15370.267759     67.338580
PR05  18961.107472 -17021.394389    852.094119     63.612985
PR07  -9160.191832  -6492.912090  22936.342713    -41.955741
PR08 -19142.441627   6998.525413  15399.827899    -56.506819
PR09  -3034.176928 -24984.883084   4373.309758     15.186625
PR12  -6101.067259  15696.188112 -19144.613166    191.511883
PR13   2957.551041  24879.939465  -4818.929493    -48.470325
PR14  10286.220479  19440.213126  12924.448025     59.160765
PR15  11545.487685   2844.613913  22586.785457    106.185718
PR16   5554.857836 -16434.797182  18621.203844     -9.551917
PR17  19684.680303  12048.726661  10923.858637    385.799702
PR18  24130.627690   5627.559899  -5928.692591     61.012771
PR19  16411.194488  -2980.976954 -19293.992837   -125.327658
PR20  -3181.801954 -11839.784753 -22360.465376   -429.735256
PR21 -20311.268520 -11802.225188  -9898.519831   -175.942290
PR22 -23999.362678  -5177.595425   7086.281850    -89.077519
PR24   3886.954202  12401.638485  21975.544811     25.487122
EOF
